CCSDS_OMM_VERS = 2.0
CREATION_DATE  = 
ORIGINATOR     = 

OBJECT_NAME    = IDEFIX & ARIANE 42P R/B
OBJECT_ID      = 2002-021B
CENTER_NAME    = EARTH
REF_FRAME      = TEME
TIME_SYSTEM    = UTC
MEAN_ELEMENT_THEORY = SGP/SGP4

EPOCH          = 2026-02-08T09:48:52.935264
MEAN_MOTION    = 14.31004875
ECCENTRICITY   = .0010686
INCLINATION    = 98.5841
RA_OF_ASC_NODE = 338.3709
ARG_OF_PERICENTER = 275.0492
MEAN_ANOMALY   = 84.9471

EPHEMERIS_TYPE = 0
CLASSIFICATION_TYPE = U
NORAD_CAT_ID   = 27422
ELEMENT_SET_NO = 999
REV_AT_EPOCH   = 23983
BSTAR          = .16414E-3
MEAN_MOTION_DOT = .388E-5
MEAN_MOTION_DDOT = 0

CCSDS_OMM_VERS = 2.0
CREATION_DATE  = 
ORIGINATOR     = 

OBJECT_NAME    = AQUA
OBJECT_ID      = 2002-022A
CENTER_NAME    = EARTH
REF_FRAME      = TEME
TIME_SYSTEM    = UTC
MEAN_ELEMENT_THEORY = SGP/SGP4

EPOCH          = 2026-02-08T12:41:42.818784
MEAN_MOTION    = 14.61903887
ECCENTRICITY   = .0001513
INCLINATION    = 98.4123
RA_OF_ASC_NODE = 6.3752
ARG_OF_PERICENTER = 53.0214
MEAN_ANOMALY   = 13.4729

EPHEMERIS_TYPE = 0
CLASSIFICATION_TYPE = U
NORAD_CAT_ID   = 27424
ELEMENT_SET_NO = 999
REV_AT_EPOCH   = 26447
BSTAR          = .28122E-3
MEAN_MOTION_DOT = .1358E-4
MEAN_MOTION_DDOT = 0

CCSDS_OMM_VERS = 2.0
CREATION_DATE  = 
ORIGINATOR     = 

OBJECT_NAME    = CZ-4B R/B
OBJECT_ID      = 2002-024C
CENTER_NAME    = EARTH
REF_FRAME      = TEME
TIME_SYSTEM    = UTC
MEAN_ELEMENT_THEORY = SGP/SGP4

EPOCH          = 2026-02-08T03:26:11.522688
MEAN_MOTION    = 14.14542238
ECCENTRICITY   = .00511381
INCLINATION    = 98.8904
RA_OF_ASC_NODE = 92.6893
ARG_OF_PERICENTER = 106.7388
MEAN_ANOMALY   = 267.7321

EPHEMERIS_TYPE = 0
CLASSIFICATION_TYPE = U
NORAD_CAT_ID   = 27432
ELEMENT_SET_NO = 999
REV_AT_EPOCH   = 22506
BSTAR          = .43650511E-4
MEAN_MOTION_DOT = .41E-6
MEAN_MOTION_DDOT = 0

CCSDS_OMM_VERS = 2.0
CREATION_DATE  = 
ORIGINATOR     = 

OBJECT_NAME    = MIDORI II (ADEOS-II)
OBJECT_ID      = 2002-056A
CENTER_NAME    = EARTH
REF_FRAME      = TEME
TIME_SYSTEM    = UTC
MEAN_ELEMENT_THEORY = SGP/SGP4

EPOCH          = 2026-02-08T11:18:55.470240
MEAN_MOTION    = 14.29262795
ECCENTRICITY   = .0002131
INCLINATION    = 98.7718
RA_OF_ASC_NODE = 357.7574
ARG_OF_PERICENTER = 83.9655
MEAN_ANOMALY   = 276.1770

EPHEMERIS_TYPE = 0
CLASSIFICATION_TYPE = U
NORAD_CAT_ID   = 27597
ELEMENT_SET_NO = 999
REV_AT_EPOCH   = 20612
BSTAR          = .187E-3
MEAN_MOTION_DOT = .43E-5
MEAN_MOTION_DDOT = 0

CCSDS_OMM_VERS = 2.0
CREATION_DATE  = 
ORIGINATOR     = 

OBJECT_NAME    = H-2A R/B
OBJECT_ID      = 2002-056E
CENTER_NAME    = EARTH
REF_FRAME      = TEME
TIME_SYSTEM    = UTC
MEAN_ELEMENT_THEORY = SGP/SGP4

EPOCH          = 2026-02-08T09:45:36.544608
MEAN_MOTION    = 14.33739747
ECCENTRICITY   = .0069035
INCLINATION    = 98.3149
RA_OF_ASC_NODE = 0.8969
ARG_OF_PERICENTER = 248.5904
MEAN_ANOMALY   = 224.4771

EPHEMERIS_TYPE = 0
CLASSIFICATION_TYPE = U
NORAD_CAT_ID   = 27601
ELEMENT_SET_NO = 999
REV_AT_EPOCH   = 20991
BSTAR          = .15713E-3
MEAN_MOTION_DOT = .406E-5
MEAN_MOTION_DDOT = 0

CCSDS_OMM_VERS = 2.0
CREATION_DATE  = 
ORIGINATOR     = 

OBJECT_NAME    = CZ-4B R/B
OBJECT_ID      = 2003-049C
CENTER_NAME    = EARTH
REF_FRAME      = TEME
TIME_SYSTEM    = UTC
MEAN_ELEMENT_THEORY = SGP/SGP4

EPOCH          = 2026-02-08T12:01:10.174080
MEAN_MOTION    = 14.54987841
ECCENTRICITY   = .0047476
INCLINATION    = 98.6848
RA_OF_ASC_NODE = 33.2682
ARG_OF_PERICENTER = 321.9585
MEAN_ANOMALY   = 37.8261

EPHEMERIS_TYPE = 0
CLASSIFICATION_TYPE = U
NORAD_CAT_ID   = 28059
ELEMENT_SET_NO = 999
REV_AT_EPOCH   = 18235
BSTAR          = .15446E-3
MEAN_MOTION_DOT = .623E-5
MEAN_MOTION_DDOT = 0

CCSDS_OMM_VERS = 2.0
CREATION_DATE  = 
ORIGINATOR     = 

OBJECT_NAME    = CZ-2C R/B
OBJECT_ID      = 2004-012C
CENTER_NAME    = EARTH
REF_FRAME      = TEME
TIME_SYSTEM    = UTC
MEAN_ELEMENT_THEORY = SGP/SGP4

EPOCH          = 2026-02-08T02:09:34.579584
MEAN_MOTION    = 15.61147170
ECCENTRICITY   = .00160023
INCLINATION    = 97.7307
RA_OF_ASC_NODE = 101.6490
ARG_OF_PERICENTER = 62.4894
MEAN_ANOMALY   = 297.7986

EPHEMERIS_TYPE = 0
CLASSIFICATION_TYPE = U
NORAD_CAT_ID   = 28222
ELEMENT_SET_NO = 999
REV_AT_EPOCH   = 19965
BSTAR          = .60637828E-3
MEAN_MOTION_DOT = .51605E-3
MEAN_MOTION_DDOT = 0

CCSDS_OMM_VERS = 2.0
CREATION_DATE  = 
ORIGINATOR     = 

OBJECT_NAME    = SL-16 R/B
OBJECT_ID      = 2004-021B
CENTER_NAME    = EARTH
REF_FRAME      = TEME
TIME_SYSTEM    = UTC
MEAN_ELEMENT_THEORY = SGP/SGP4

EPOCH          = 2026-02-08T02:40:14.475360
MEAN_MOTION    = 14.14589821
ECCENTRICITY   = .00029128
INCLINATION    = 70.9999
RA_OF_ASC_NODE = 294.5683
ARG_OF_PERICENTER = 83.8218
MEAN_ANOMALY   = 276.3236

EPHEMERIS_TYPE = 0
CLASSIFICATION_TYPE = U
NORAD_CAT_ID   = 28353
ELEMENT_SET_NO = 999
REV_AT_EPOCH   = 11865
BSTAR          = .78784447E-4
MEAN_MOTION_DOT = .104E-5
MEAN_MOTION_DDOT = 0

CCSDS_OMM_VERS = 2.0
CREATION_DATE  = 
ORIGINATOR     = 

OBJECT_NAME    = CZ-4B R/B
OBJECT_ID      = 2004-035C
CENTER_NAME    = EARTH
REF_FRAME      = TEME
TIME_SYSTEM    = UTC
MEAN_ELEMENT_THEORY = SGP/SGP4

EPOCH          = 2026-02-08T01:29:45.105504
MEAN_MOTION    = 15.28514030
ECCENTRICITY   = .00341671
INCLINATION    = 97.3549
RA_OF_ASC_NODE = 73.6661
ARG_OF_PERICENTER = 74.8659
MEAN_ANOMALY   = 285.6356

EPHEMERIS_TYPE = 0
CLASSIFICATION_TYPE = U
NORAD_CAT_ID   = 28415
ELEMENT_SET_NO = 999
REV_AT_EPOCH   = 17538
BSTAR          = .32351082E-3
MEAN_MOTION_DOT = .906E-4
MEAN_MOTION_DDOT = 0

CCSDS_OMM_VERS = 2.0
CREATION_DATE  = 
ORIGINATOR     = 

OBJECT_NAME    = CZ-2C R/B
OBJECT_ID      = 2004-046B
CENTER_NAME    = EARTH
REF_FRAME      = TEME
TIME_SYSTEM    = UTC
MEAN_ELEMENT_THEORY = SGP/SGP4

EPOCH          = 2026-02-08T09:16:03.882720
MEAN_MOTION    = 14.26981768
ECCENTRICITY   = .0138291
INCLINATION    = 98.1994
RA_OF_ASC_NODE = 316.1900
ARG_OF_PERICENTER = 241.3448
MEAN_ANOMALY   = 117.3770

EPHEMERIS_TYPE = 0
CLASSIFICATION_TYPE = U
NORAD_CAT_ID   = 28480
ELEMENT_SET_NO = 999
REV_AT_EPOCH   = 10432
BSTAR          = .84527E-4
MEAN_MOTION_DOT = .185E-5
MEAN_MOTION_DDOT = 0

CCSDS_OMM_VERS = 2.0
CREATION_DATE  = 
ORIGINATOR     = 

OBJECT_NAME    = ARIANE 5 R/B
OBJECT_ID      = 2004-049H
CENTER_NAME    = EARTH
REF_FRAME      = TEME
TIME_SYSTEM    = UTC
MEAN_ELEMENT_THEORY = SGP/SGP4

EPOCH          = 2026-02-08T09:27:39.064032
MEAN_MOTION    = 14.85205739
ECCENTRICITY   = .0085507
INCLINATION    = 98.2579
RA_OF_ASC_NODE = 206.7651
ARG_OF_PERICENTER = 86.1277
MEAN_ANOMALY   = 274.9707

EPHEMERIS_TYPE = 0
CLASSIFICATION_TYPE = U
NORAD_CAT_ID   = 28499
ELEMENT_SET_NO = 999
REV_AT_EPOCH   = 14144
BSTAR          = .1448E-3
MEAN_MOTION_DOT = .1261E-4
MEAN_MOTION_DDOT = 0

CCSDS_OMM_VERS = 2.0
CREATION_DATE  = 
ORIGINATOR     = 

OBJECT_NAME    = CZ-2D R/B
OBJECT_ID      = 2005-024B
CENTER_NAME    = EARTH
REF_FRAME      = TEME
TIME_SYSTEM    = UTC
MEAN_ELEMENT_THEORY = SGP/SGP4

EPOCH          = 2026-02-08T12:01:06.413952
MEAN_MOTION    = 15.57592604
ECCENTRICITY   = .0007419
INCLINATION    = 97.3623
RA_OF_ASC_NODE = 53.6355
ARG_OF_PERICENTER = 117.2451
MEAN_ANOMALY   = 242.9561

EPHEMERIS_TYPE = 0
CLASSIFICATION_TYPE = U
NORAD_CAT_ID   = 28738
ELEMENT_SET_NO = 999
REV_AT_EPOCH   = 13523
BSTAR          = .56469E-3
MEAN_MOTION_DOT = .41752E-3
MEAN_MOTION_DDOT = 0

