IDEFIX & ARIANE 42P R/B 
1 27422U 02021B   26039.40894601  .00000388  00000+0  16414-3 0  9991
2 27422  98.5841 338.3709 0010686 275.0492  84.9471 14.31004875239838
AQUA                    
1 27424U 02022A   26039.52896781  .00001358  00000+0  28122-3 0  9995
2 27424  98.4123   6.3752 0001513  53.0214  13.4729 14.61903887264472
CZ-4B R/B               
1 27432U 02024C   26039.14318892  .00000041  00000+0  43651-4 0  9999
2 27432  98.8904  92.6893 0051138 106.7388 267.7321 14.14542238225063
MIDORI II (ADEOS-II)    
1 27597U 02056A   26039.47147535  .00000430  00000+0  18700-3 0  9994
2 27597  98.7718 357.7574 0002131  83.9655 276.1770 14.29262795206121
H-2A R/B                
1 27601U 02056E   26039.40667297  .00000406  00000+0  15713-3 0  9999
2 27601  98.3149   0.8969 0069035 248.5904 224.4771 14.33739747209915
CZ-4B R/B               
1 28059U 03049C   26039.50081220  .00000623  00000+0  15446-3 0  9991
2 28059  98.6848  33.2682 0047476 321.9585  37.8261 14.54987841182351
CZ-2C R/B               
1 28222U 04012C   26039.08998356  .00051605  00000+0  60638-3 0  9993
2 28222  97.7307 101.6490 0016002  62.4894 297.7986 15.61147170199655
SL-16 R/B               
1 28353U 04021B   26039.11127865  .00000104  00000+0  78784-4 0  9991
2 28353  70.9999 294.5683 0002912  83.8218 276.3236 14.14589821118650
CZ-4B R/B               
1 28415U 04035C   26039.06232761  .00009060  00000+0  32351-3 0  9990
2 28415  97.3549  73.6661 0034167  74.8659 285.6356 15.28514030175386
CZ-2C R/B               
1 28480U 04046B   26039.38615605  .00000185  00000+0  84527-4 0  9993
2 28480  98.1994 316.1900 0138291 241.3448 117.3770 14.26981768104322
ARIANE 5 R/B            
1 28499U 04049H   26039.39420213  .00001261  00000+0  14480-3 0  9992
2 28499  98.2579 206.7651 0085507  86.1277 274.9707 14.85205739141441
CZ-2D R/B               
1 28738U 05024B   26039.50076868  .00041752  00000+0  56469-3 0  9990
2 28738  97.3623  53.6355 0007419 117.2451 242.9561 15.57592604135236
